{
  "type": "FeatureCollection",
  "name": "med_v0_admin_regions_slice1",
  "crs": "EPSG:4326",
  "features": [
    {
      "type": "Feature",
      "properties": {
        "kind": "territory",
        "cell_id": "c_0_0",
        "name": "Gibraltar"
      },
      "geometry": {
        "type": "Polygon",
        "coordinates": [
          [
            [
              -5.85,
              36.38
            ],
            [
              -5.22,
              36.38
            ],
            [
              -5.18,
              36.02
            ],
            [
              -5.55,
              35.88
            ],
            [
              -5.88,
              36.02
            ],
            [
              -5.85,
              36.38
            ]
          ]
        ]
      }
    },
    {
      "type": "Feature",
      "properties": {
        "kind": "territory",
        "cell_id": "c_1_0",
        "name": "Andalusia"
      },
      "geometry": {
        "type": "Polygon",
        "coordinates": [
          [
            [
              -7.4,
              38.35
            ],
            [
              -4.55,
              38.55
            ],
            [
              -1.85,
              38.15
            ],
            [
              -1.65,
              36.85
            ],
            [
              -3.15,
              36.55
            ],
            [
              -5.05,
              36.42
            ],
            [
              -5.85,
              36.45
            ],
            [
              -7.15,
              37.15
            ],
            [
              -7.4,
              38.35
            ]
          ]
        ]
      }
    },
    {
      "type": "Feature",
      "properties": {
        "kind": "territory",
        "cell_id": "c_1_1",
        "name": "Maghreb"
      },
      "geometry": {
        "type": "Polygon",
        "coordinates": [
          [
            [
              -5.35,
              35.95
            ],
            [
              -1.8,
              36.15
            ],
            [
              2.85,
              36.45
            ],
            [
              6.15,
              36.55
            ],
            [
              8.05,
              36.65
            ],
            [
              8.15,
              34.85
            ],
            [
              4.2,
              34.55
            ],
            [
              -0.4,
              34.35
            ],
            [
              -4.6,
              34.55
            ],
            [
              -5.65,
              35.15
            ],
            [
              -5.35,
              35.95
            ]
          ]
        ]
      }
    },
    {
      "type": "Feature",
      "properties": {
        "kind": "territory",
        "cell_id": "c_2_0",
        "name": "Italy"
      },
      "geometry": {
        "type": "Polygon",
        "coordinates": [
          [
            [
              8.55,
              44.55
            ],
            [
              10.55,
              44.85
            ],
            [
              12.35,
              44.35
            ],
            [
              13.85,
              42.65
            ],
            [
              15.85,
              41.15
            ],
            [
              17.35,
              40.55
            ],
            [
              16.55,
              38.05
            ],
            [
              15.15,
              37.85
            ],
            [
              13.65,
              40.55
            ],
            [
              12.05,
              41.45
            ],
            [
              10.15,
              42.25
            ],
            [
              8.85,
              43.55
            ],
            [
              8.55,
              44.55
            ]
          ]
        ]
      }
    },
    {
      "type": "Feature",
      "properties": {
        "kind": "territory",
        "cell_id": "c_3_0",
        "name": "Greece"
      },
      "geometry": {
        "type": "Polygon",
        "coordinates": [
          [
            [
              19.55,
              40.85
            ],
            [
              22.15,
              41.15
            ],
            [
              24.35,
              40.55
            ],
            [
              24.85,
              38.15
            ],
            [
              23.55,
              36.15
            ],
            [
              21.45,
              36.25
            ],
            [
              20.15,
              37.55
            ],
            [
              19.65,
              39.15
            ],
            [
              19.55,
              40.85
            ]
          ]
        ]
      }
    },
    {
      "type": "Feature",
      "properties": {
        "kind": "territory",
        "cell_id": "c_4_0",
        "name": "Anatolia"
      },
      "geometry": {
        "type": "Polygon",
        "coordinates": [
          [
            [
              26.35,
              41.25
            ],
            [
              32.85,
              41.55
            ],
            [
              35.15,
              40.85
            ],
            [
              35.45,
              37.15
            ],
            [
              32.15,
              36.25
            ],
            [
              28.15,
              36.35
            ],
            [
              26.55,
              37.85
            ],
            [
              26.35,
              41.25
            ]
          ]
        ]
      }
    },
    {
      "type": "Feature",
      "properties": {
        "kind": "territory",
        "cell_id": "c_4_1",
        "name": "Levant"
      },
      "geometry": {
        "type": "Polygon",
        "coordinates": [
          [
            [
              34.35,
              36.85
            ],
            [
              36.55,
              36.95
            ],
            [
              36.85,
              33.15
            ],
            [
              35.35,
              31.85
            ],
            [
              34.15,
              32.15
            ],
            [
              34.55,
              34.55
            ],
            [
              34.35,
              36.85
            ]
          ]
        ]
      }
    },
    {
      "type": "Feature",
      "properties": {
        "kind": "territory",
        "cell_id": "c_5_0",
        "name": "Suez"
      },
      "geometry": {
        "type": "Polygon",
        "coordinates": [
          [
            [
              29.55,
              31.85
            ],
            [
              32.85,
              31.65
            ],
            [
              33.15,
              29.55
            ],
            [
              31.55,
              29.35
            ],
            [
              29.85,
              30.15
            ],
            [
              29.55,
              31.85
            ]
          ]
        ]
      }
    }
  ]
}
