{"type":"FeatureCollection","name":"coastline","features":[{"type":"Feature","properties":{"featurecla":"Coastline"},"geometry":{"type":"LineString","coordinates":[[26.167871093750023,35.215087890625],[26.02802734375001,35.215283203125],[25.791308593750017,35.122851562499996],[25.745019531250023,35.142724609374994],[25.755859375,35.3263671875],[25.73017578125001,35.348583984375],[25.475683593750006,35.306201171874996],[25.104296875000017,35.346923828125],[25.003125,35.40986328125],[24.721289062500006,35.4248046875],[24.312890625000023,35.363818359374996],[24.27490234375,35.385986328125],[24.25537109375,35.468603515625],[24.178515625000017,35.459521484374996],[24.108984375,35.49580078125],[24.19775390625,35.537451171875],[24.166015625,35.59521484375],[24.093359375,35.59384765625],[24.01328125,35.529443359374994],[23.85224609375001,35.535449218749996],[23.793359375000023,35.556201171874996],[23.736914062500006,35.655517578125],[23.715429687500006,35.550146484375],[23.672656250000017,35.513916015625],[23.608691406250017,35.566259765625],[23.56982421875,35.534765625],[23.54755859375001,35.415576171874996],[23.561621093750006,35.295166015625],[23.638085937500023,35.23515625],[23.883593750000017,35.24609375],[24.463671875000017,35.1603515625],[24.708886718750023,35.0890625],[24.745214843750006,34.950634765625],[24.7998046875,34.934472656249994],[25.8296875,35.025195312499996],[26.165625,35.018603515624996],[26.24433593750001,35.044677734375],[26.320214843750023,35.31513671875],[26.167871093750023,35.215087890625]]}},{"type":"Feature","properties":{"featurecla":"Coastline"},"geometry":{"type":"LineString","coordinates":[[24.463964843750006,38.1451171875],[24.359667968750017,38.1625],[24.275781250000023,38.220019531249996],[24.1875,38.463427734374996],[24.19970703125,38.541015625],[24.099023437500023,38.67099609375],[23.878222656250017,38.686572265624996],[23.525,38.8134765625],[23.471972656250017,38.85009765625],[23.415429687500023,38.958642578124994],[23.31269531250001,39.034912109375],[23.145800781250017,39.002685546875],[22.87031250000001,38.870507812499994],[22.93574218750001,38.839648437499996],[23.029101562500017,38.873388671875],[23.25214843750001,38.801220703125],[23.61738281250001,38.552539062499996],[23.650781250000023,38.44306640625],[23.7587890625,38.401220703125],[24.040136718750006,38.389990234375],[24.1890625,38.204296875],[24.212011718750006,38.117529296875],[24.359472656250006,38.0185546875],[24.536523437500023,37.979736328125],[24.578515625000023,38.020166015624994],[24.58837890625,38.123974609375],[24.463964843750006,38.1451171875]]}},{"type":"Feature","properties":{"featurecla":"Coastline"},"geometry":{"type":"LineString","coordinates":[[34.27236328125002,35.569970703124994],[34.0634765625,35.473974609375],[33.60761718750001,35.354150390624994],[33.30781250000001,35.34150390625],[32.94160156250001,35.390429687499996],[32.8798828125,35.180566406249994],[32.77236328125002,35.159570312499994],[32.65234375,35.182666015624996],[32.39091796875002,35.0498046875],[32.30097656250001,35.082958984375],[32.31718750000002,34.9533203125],[32.44902343750002,34.729443359375],[32.69296875,34.649365234375],[32.8671875,34.6611328125],[32.94179687500002,34.57587890625],[33.007910156250006,34.569580078125],[33.06230468750002,34.6748046875],[33.41494140625002,34.750878906249994],[33.69941406250001,34.969873046874994],[34.05019531250002,34.98837890625],[33.90791015625001,35.202392578125],[33.941992187500006,35.292041015624996],[34.55605468750002,35.662060546875],[34.27236328125002,35.569970703124994]]}},{"type":"Feature","properties":{"featurecla":"Coastline"},"geometry":{"type":"LineString","coordinates":[[3.241113281250023,39.756689453125],[3.145312500000017,39.790087890624996],[3.198632812500023,39.88984375],[3.164453125000023,39.92421875],[3.197558593750017,39.961083984374994],[3.15869140625,39.970507812499996],[2.784960937500017,39.854833984375],[2.371289062500011,39.613085937499996],[2.370019531250023,39.572070312499996],[2.49951171875,39.477880859375],[2.634082031250017,39.556201171874996],[2.700585937500023,39.542138671874994],[2.745996093750023,39.51025390625],[2.7998046875,39.385058593749996],[3.072851562500006,39.30126953125],[3.244726562500006,39.386621093749994],[3.461816406250023,39.69775390625],[3.448925781250011,39.76123046875],[3.395898437500023,39.777294921875],[3.241113281250023,39.756689453125]]}},{"type":"Feature","properties":{"featurecla":"Coastline"},"geometry":{"type":"LineString","coordinates":[[9.682031250000023,40.818115234375],[9.5537109375,40.93212890625],[9.615332031250006,41.01728515625],[9.538769531250011,41.053662109375],[9.455175781250006,41.150146484375],[9.283007812500017,41.20166015625],[9.228417968750023,41.257080078125],[9.18212890625,41.2421875],[9.107226562500017,41.142919921875],[8.998144531250006,41.1103515625],[8.821191406250023,40.94990234375],[8.571875,40.8501953125],[8.36328125,40.846337890624994],[8.22421875,40.913330078125],[8.180859375000011,40.771044921874996],[8.18994140625,40.651611328125],[8.353222656250011,40.500537109374996],[8.4091796875,40.35234375],[8.471289062500006,40.29267578125],[8.470800781250006,40.130712890625],[8.408593750000023,40.037646484374996],[8.4078125,39.917236328125],[8.495898437500017,39.8974609375],[8.547753906250023,39.839208984375],[8.54052734375,39.731591796874994],[8.471093750000023,39.748095703124996],[8.451171875,39.7216796875],[8.447070312500017,39.562792968749996],[8.399121093750011,39.481591796874994],[8.418164062500011,39.205712890624994],[8.648535156250006,38.9265625],[8.88134765625,38.912890625],[8.966601562500017,38.963720703125],[9.022656250000011,39.043261718749996],[9.056347656250011,39.239160156249994],[9.149316406250023,39.19697265625],[9.26416015625,39.216796875],[9.486328125,39.139550781249994],[9.5625,39.166015625],[9.616992187500017,39.354394531249994],[9.706738281250011,40.017041015625],[9.642968750000023,40.268408203125],[9.805273437500006,40.499560546874996],[9.682031250000023,40.818115234375]]}},{"type":"Feature","properties":{"featurecla":"Coastline"},"geometry":{"type":"LineString","coordinates":[[8.6416015625,42.118212890624996],[8.700976562500017,42.095605468749994],[8.702539062500023,42.043115234374994],[8.615136718750023,41.959130859374994],[8.621875,41.930712890624996],[8.740429687500011,41.925146484375],[8.758691406250023,41.870410156249996],[8.717968750000011,41.76142578125],[8.886816406250006,41.70068359375],[8.807519531250023,41.58837890625],[8.89501953125,41.516162109374996],[9.186132812500006,41.384912109374994],[9.374218750000011,41.67880859375],[9.40087890625,41.926220703125],[9.556445312500017,42.1609375],[9.526171875000017,42.552636718749994],[9.454199218750006,42.65859375],[9.480371093750023,42.805419921875],[9.463281250000023,42.981005859374996],[9.415234375000011,43.021484375],[9.363183593750023,43.017382812499996],[9.330957031250023,42.943798828125],[9.33837890625,42.766894531249996],[9.287695312500006,42.694628906249996],[9.137890625000011,42.73291015625],[9.043652343750011,42.661669921874996],[8.814843750000023,42.60791015625],[8.713085937500011,42.549755859375],[8.565625,42.357714843749996],[8.625878906250023,42.343408203124994],[8.675488281250011,42.284033203125],[8.566210937500017,42.218798828124996],[8.6416015625,42.118212890624996]]}},{"type":"Feature","properties":{"featurecla":"Coastline"},"geometry":{"type":"LineString","coordinates":[[15.340722656250023,38.217333984374996],[15.279589843750017,38.230371093749994],[15.11875,38.152734375],[14.789648437500006,38.1669921875],[14.505957031250006,38.0455078125],[14.287695312500006,38.016845703125],[14.05,38.04052734375],[13.788867187500017,37.981201171875],[13.681542968750023,38.000732421875],[13.291113281250006,38.191455078124996],[13.159960937500017,38.190332031249994],[13.056835937500011,38.130908203124996],[13.049023437500011,38.08408203125],[12.902734375000023,38.03486328125],[12.734375,38.183056640625],[12.664355468750017,38.10791015625],[12.547656250000017,38.0529296875],[12.435546875,37.819775390625],[12.526757812500023,37.66953125],[12.640234375,37.5943359375],[12.924121093750017,37.5705078125],[13.169921875,37.479296875],[13.3609375,37.34873046875],[13.800585937500017,37.135888671874994],[13.905468750000011,37.100634765624996],[14.142968750000023,37.103662109374994],[14.259082031250017,37.046435546874996],[14.367285156250006,36.9728515625],[14.501855468750023,36.798681640625],[14.775976562500006,36.710400390625],[14.8896484375,36.723535156249994],[15.112597656250017,36.687841796875],[15.115820312500006,36.839257812499994],[15.18515625,36.934814453125],[15.29453125,37.01328125],[15.295703125000017,37.05517578125],[15.288671875,37.096923828125],[15.174121093750017,37.2091796875],[15.230273437500017,37.2443359375],[15.116992187500017,37.334716796875],[15.099511718750023,37.45859375],[15.234472656250006,37.784814453124994],[15.634667968750023,38.267578125],[15.498730468750011,38.290869140625],[15.340722656250023,38.217333984374996]]}},{"type":"Feature","properties":{"featurecla":"Coastline"},"geometry":{"type":"LineString","coordinates":[[14.180371093750011,36.060400390625],[14.253613281250011,36.012158203125],[14.320898437500006,36.03623046875],[14.26328125,36.07578125],[14.180371093750011,36.060400390625]]}},{"type":"Feature","properties":{"featurecla":"Coastline"},"geometry":{"type":"LineString","coordinates":[[13.871191406250006,40.76181640625],[13.86767578125,40.708740234375],[13.960839843750023,40.718164062499994],[13.962109375000011,40.739404296874994],[13.871191406250006,40.76181640625]]}},{"type":"Feature","properties":{"featurecla":"Coastline"},"geometry":{"type":"LineString","coordinates":[[11.948046875000017,36.843066406249996],[11.940625,36.78037109375],[12.003320312500023,36.745996093749994],[12.05126953125,36.75703125],[12.024218750000017,36.820947265624994],[11.948046875000017,36.843066406249996]]}},{"type":"Feature","properties":{"featurecla":"Coastline"},"geometry":{"type":"LineString","coordinates":[[16.9775390625,42.927783203124996],[17.188281250000017,42.917041015624996],[17.093652343750023,42.96435546875],[16.650683593750017,42.99658203125],[16.738867187500006,42.912744140624994],[16.850683593750006,42.8955078125],[16.9775390625,42.927783203124996]]}},{"type":"Feature","properties":{"featurecla":"Coastline"},"geometry":{"type":"LineString","coordinates":[[17.124121093750006,43.1154296875],[17.19404296875001,43.12578125],[16.697265625,43.174951171874994],[16.65595703125001,43.213769531249994],[16.521386718750023,43.229248046875],[16.37646484375,43.213769531249994],[16.67919921875,43.12314453125],[17.124121093750006,43.1154296875]]}},{"type":"Feature","properties":{"featurecla":"Coastline"},"geometry":{"type":"LineString","coordinates":[[16.62744140625,43.26806640625],[16.423144531250017,43.317236328125],[16.44892578125001,43.387060546875],[16.834375,43.350830078125],[16.89130859375001,43.3146484375],[16.785253906250006,43.270654296874994],[16.62744140625,43.26806640625]]}},{"type":"Feature","properties":{"featurecla":"Coastline"},"geometry":{"type":"LineString","coordinates":[[31.584863281250023,46.303173828125],[31.5087890625,46.37314453125],[31.563867187500023,46.257763671875],[32.15009765625001,46.1546875],[31.584863281250023,46.303173828125]]}},{"type":"Feature","properties":{"featurecla":"Coastline"},"geometry":{"type":"LineString","coordinates":[[27.914453125000023,36.3453125],[27.71630859375,36.17158203125],[27.75732421875,36.069189453125],[27.71552734375001,35.957324218749996],[27.745703125,35.911035156249994],[27.8427734375,35.929296875],[27.96552734375001,36.047509765624994],[28.087792968750023,36.065332031249994],[28.067675781250017,36.1296875],[28.14404296875,36.209863281249994],[28.230078125,36.370263671874994],[28.231835937500023,36.433642578124996],[27.914453125000023,36.3453125]]}},{"type":"Feature","properties":{"featurecla":"Coastline"},"geometry":{"type":"LineString","coordinates":[[27.1572265625,35.6294921875],[27.22314453125,35.820458984374994],[27.158007812500017,35.788671875],[27.156054687500017,35.72626953125],[27.070703125000023,35.59775390625],[27.115820312500006,35.511132812499994],[27.09912109375,35.456445312499994],[27.13789062500001,35.409082031249994],[27.176074218750017,35.465283203125],[27.23359375000001,35.478564453124996],[27.1572265625,35.6294921875]]}},{"type":"Feature","properties":{"featurecla":"Coastline"},"geometry":{"type":"LineString","coordinates":[[27.8625,36.641162109374996],[27.785742187500006,36.60751953125],[27.838281250000023,36.537988281249994],[27.869042968750023,36.582666015624994],[27.8625,36.641162109374996]]}},{"type":"Feature","properties":{"featurecla":"Coastline"},"geometry":{"type":"LineString","coordinates":[[27.040136718750006,37.0015625],[26.966601562500017,37.052099609375],[26.888671875,37.087255859375],[26.93769531250001,37.024609375],[26.919921875,36.945214843749994],[27.01972656250001,36.959033203124996],[27.040136718750006,37.0015625]]}},{"type":"Feature","properties":{"featurecla":"Coastline"},"geometry":{"type":"LineString","coordinates":[[27.061132812500006,36.840380859374996],[26.918359375000023,36.725927734375],[27.150976562500006,36.777587890625],[27.352148437500006,36.868896484375],[27.265625,36.905126953125],[27.061132812500006,36.840380859374996]]}},{"type":"Feature","properties":{"featurecla":"Coastline"},"geometry":{"type":"LineString","coordinates":[[25.361914062500006,37.07041015625],[25.45673828125001,36.9296875],[25.5458984375,36.967578125],[25.584277343750017,37.039306640625],[25.587890625,37.1525390625],[25.525292968750023,37.19638671875],[25.361914062500006,37.07041015625]]}},{"type":"Feature","properties":{"featurecla":"Coastline"},"geometry":{"type":"LineString","coordinates":[[25.275292968750023,37.137841796874994],[25.146484375,37.107421875],[25.10546875,37.034960937499996],[25.13330078125,36.999658203124994],[25.19941406250001,36.99130859375],[25.27890625,37.068408203124996],[25.275292968750023,37.137841796874994]]}},{"type":"Feature","properties":{"featurecla":"Coastline"},"geometry":{"type":"LineString","coordinates":[[25.414648437500006,36.442285156249994],[25.370507812500023,36.358935546874996],[25.435937500000023,36.340087890625],[25.482421875,36.392626953124996],[25.408984375000017,36.47373046875],[25.414648437500006,36.442285156249994]]}},{"type":"Feature","properties":{"featurecla":"Coastline"},"geometry":{"type":"LineString","coordinates":[[25.364355468750006,36.658349609374994],[25.40693359375001,36.717333984374996],[25.2958984375,36.78916015625],[25.25996093750001,36.758447265624994],[25.364355468750006,36.658349609374994]]}},{"type":"Feature","properties":{"featurecla":"Coastline"},"geometry":{"type":"LineString","coordinates":[[26.981542968750006,37.781982421875],[26.74335937500001,37.809765625],[26.638671875,37.780859375],[26.5810546875,37.72373046875],[26.720507812500017,37.70546875],[26.84492187500001,37.6447265625],[27.055078125000023,37.709277343749996],[27.039648437500006,37.77001953125],[26.981542968750006,37.781982421875]]}},{"type":"Feature","properties":{"featurecla":"Coastline"},"geometry":{"type":"LineString","coordinates":[[26.211523437500006,37.63828125],[26.086328125000023,37.634912109374994],[25.982421875,37.5255859375],[26.204882812500017,37.568505859374994],[26.351367187500017,37.67431640625],[26.211523437500006,37.63828125]]}},{"type":"Feature","properties":{"featurecla":"Coastline"},"geometry":{"type":"LineString","coordinates":[[25.941992187500006,36.886572265625],[25.796777343750023,36.80703125],[25.7431640625,36.78974609375],[25.859375,36.790429687499994],[26.064453125,36.902734375],[26.00068359375001,36.937402343749994],[25.941992187500006,36.886572265625]]}},{"type":"Feature","properties":{"featurecla":"Coastline"},"geometry":{"type":"LineString","coordinates":[[26.337011718750006,36.58056640625],[26.269824218750017,36.59541015625],[26.27001953125,36.546923828124996],[26.331445312500023,36.511376953124994],[26.46064453125001,36.585400390625],[26.370019531250023,36.638574218749994],[26.384179687500023,36.607861328125],[26.337011718750006,36.58056640625]]}},{"type":"Feature","properties":{"featurecla":"Coastline"},"geometry":{"type":"LineString","coordinates":[[24.277441406250006,37.601123046874996],[24.288964843750023,37.528271484375],[24.400781250000023,37.6490234375],[24.37910156250001,37.68271484375],[24.320410156250006,37.677734375],[24.277441406250006,37.601123046874996]]}},{"type":"Feature","properties":{"featurecla":"Coastline"},"geometry":{"type":"LineString","coordinates":[[24.397753906250017,37.383447265624994],[24.37890625,37.314111328124994],[24.4814453125,37.408007812499996],[24.43125,37.4751953125],[24.369726562500006,37.41962890625],[24.397753906250017,37.383447265624994]]}},{"type":"Feature","properties":{"featurecla":"Coastline"},"geometry":{"type":"LineString","coordinates":[[24.425195312500023,36.712939453124996],[24.357421875,36.744287109374994],[24.325976562500017,36.655615234375],[24.530664062500023,36.683984375],[24.535742187500006,36.76376953125],[24.425195312500023,36.712939453124996]]}},{"type":"Feature","properties":{"featurecla":"Coastline"},"geometry":{"type":"LineString","coordinates":[[24.94287109375,37.493505859375],[24.906542968750017,37.50888671875],[24.911523437500023,37.390576171875],[24.937890625000023,37.389697265624996],[24.94287109375,37.493505859375]]}},{"type":"Feature","properties":{"featurecla":"Coastline"},"geometry":{"type":"LineString","coordinates":[[24.94843750000001,37.857666015625],[24.956347656250017,37.90478515625],[24.855078125,37.913671875],[24.790429687500023,37.990136718749994],[24.7001953125,37.961669921875],[24.71435546875,37.898876953125],[24.962207031250017,37.6923828125],[24.99169921875,37.759619140625],[24.94843750000001,37.857666015625]]}},{"type":"Feature","properties":{"featurecla":"Coastline"},"geometry":{"type":"LineString","coordinates":[[25.156347656250006,37.545068359374994],[25.21875,37.535107421875],[25.255859375,37.599609375],[25.225390625000017,37.630664062499996],[24.996484375000023,37.676904296874994],[25.156347656250006,37.545068359374994]]}},{"type":"Feature","properties":{"featurecla":"Coastline"},"geometry":{"type":"LineString","coordinates":[[24.67646484375001,36.959277343749996],[24.70263671875,36.91708984375],[24.76318359375,36.94921875],[24.716113281250017,37.023828125],[24.681445312500017,37.021630859374994],[24.67646484375001,36.959277343749996]]}},{"type":"Feature","properties":{"featurecla":"Coastline"},"geometry":{"type":"LineString","coordinates":[[26.0125,38.601708984374994],[25.846093750000023,38.574023437499996],[25.85126953125001,38.5083984375],[25.99140625000001,38.353515625],[25.874316406250017,38.26962890625],[25.99853515625,38.161523437499994],[26.094042968750017,38.218066406249996],[26.110742187500023,38.279638671875],[26.157031250000017,38.3029296875],[26.16035156250001,38.54072265625],[26.0125,38.601708984374994]]}},{"type":"Feature","properties":{"featurecla":"Coastline"},"geometry":{"type":"LineString","coordinates":[[26.531054687500017,39.171777343749994],[26.39277343750001,39.2701171875],[26.41015625,39.329443359375],[26.347753906250006,39.3830078125],[26.165429687500023,39.37353515625],[26.164843750000017,39.331982421875],[26.08837890625,39.304296875],[25.909570312500023,39.287548828125],[25.844140625000023,39.200048828125],[25.90625,39.138964843749996],[26.072363281250006,39.095605468749994],[26.17597656250001,39.194287109375],[26.27314453125001,39.197558593749996],[26.10791015625,39.0810546875],[26.16083984375001,39.02587890625],[26.39013671875,38.973925781249996],[26.547167968750017,38.994140625],[26.488671875000023,39.0748046875],[26.583984375,39.0314453125],[26.578222656250006,39.109521484374994],[26.531054687500017,39.171777343749994]]}},{"type":"Feature","properties":{"featurecla":"Coastline"},"geometry":{"type":"LineString","coordinates":[[23.735156250000017,39.08056640625],[23.77978515625,39.114404296874994],[23.59394531250001,39.20859375],[23.666113281250006,39.095361328124994],[23.735156250000017,39.08056640625]]}},{"type":"Feature","properties":{"featurecla":"Coastline"},"geometry":{"type":"LineString","coordinates":[[23.97089843750001,39.267724609374994],[23.888085937500023,39.226367187499996],[23.841210937500023,39.14658203125],[23.939746093750017,39.200537109375],[23.97089843750001,39.267724609374994]]}},{"type":"Feature","properties":{"featurecla":"Coastline"},"geometry":{"type":"LineString","coordinates":[[24.58125,38.878857421875],[24.5640625,38.942236328125],[24.485644531250017,38.980273437499996],[24.461035156250006,38.888623046875],[24.56640625,38.832373046875],[24.541015625,38.788671875],[24.674707031250023,38.809228515624994],[24.58125,38.878857421875]]}},{"type":"Feature","properties":{"featurecla":"Coastline"},"geometry":{"type":"LineString","coordinates":[[25.56855468750001,40.515869140625],[25.448046875000017,40.4828125],[25.572656250000023,40.400439453124996],[25.68574218750001,40.4265625],[25.56855468750001,40.515869140625]]}},{"type":"Feature","properties":{"featurecla":"Coastline"},"geometry":{"type":"LineString","coordinates":[[25.373632812500006,40.015527343749994],[25.285742187500006,39.956298828125],[25.234179687500017,40.005419921874996],[25.058007812500023,39.999658203124994],[25.06220703125001,39.852392578125],[25.18515625,39.829931640625],[25.249414062500023,39.894140625],[25.26337890625001,39.82294921875],[25.35703125,39.80810546875],[25.449121093750023,40.034814453124994],[25.373632812500006,40.015527343749994]]}},{"type":"Feature","properties":{"featurecla":"Coastline"},"geometry":{"type":"LineString","coordinates":[[24.623339843750017,40.792919921875],[24.516699218750006,40.68720703125],[24.515527343750023,40.647021484374996],[24.645898437500023,40.579443359375],[24.774218750000017,40.615185546875],[24.77363281250001,40.730273437499996],[24.719140625000023,40.786279296874994],[24.623339843750017,40.792919921875]]}},{"type":"Feature","properties":{"featurecla":"Coastline"},"geometry":{"type":"LineString","coordinates":[[25.74091796875001,40.1962890625],[25.6689453125,40.135888671874994],[25.740234375,40.10546875],[25.970019531250017,40.136328125],[25.97705078125,40.17783203125],[25.918359375000023,40.23798828125],[25.74091796875001,40.1962890625]]}},{"type":"Feature","properties":{"featurecla":"Coastline"},"geometry":{"type":"LineString","coordinates":[[11.2548828125,34.8203125],[11.153027343750011,34.744580078125],[11.123632812500006,34.681689453124996],[11.278027343750011,34.753808593749994],[11.2548828125,34.8203125]]}},{"type":"Feature","properties":{"featurecla":"Coastline"},"geometry":{"type":"LineString","coordinates":[[10.921972656250006,33.893115234374996],[10.745214843750006,33.888671875],[10.722070312500023,33.738916015624994],[10.857421875,33.687158203124994],[10.993066406250023,33.745947265625],[11.033593750000023,33.805029296875],[10.921972656250006,33.893115234374996]]}},{"type":"Feature","properties":{"featurecla":"Coastline"},"geometry":{"type":"LineString","coordinates":[[-1.388671875,46.050390625],[-1.368701171874989,45.967675781249994],[-1.213574218749983,45.8166015625],[-1.178320312499977,45.904052734375],[-1.285058593749994,46.002685546875],[-1.388671875,46.050390625]]}},{"type":"Feature","properties":{"featurecla":"Coastline"},"geometry":{"type":"LineString","coordinates":[[10.358984375,42.822314453124996],[10.127539062500006,42.810302734375],[10.109765625000023,42.785058593749994],[10.13125,42.742041015625],[10.335644531250011,42.761132812499994],[10.419335937500023,42.713183593749996],[10.428320312500006,42.819189453125],[10.395117187500006,42.858154296875],[10.358984375,42.822314453124996]]}},{"type":"Feature","properties":{"featurecla":"Coastline"},"geometry":{"type":"LineString","coordinates":[[8.366796875,39.11591796875],[8.3609375,39.038671875],[8.421484375,38.968652343749994],[8.478906250000023,39.067529296874994],[8.366796875,39.11591796875]]}},{"type":"Feature","properties":{"featurecla":"Coastline"},"geometry":{"type":"LineString","coordinates":[[8.34375,41.101611328124996],[8.320214843750023,41.121875],[8.267382812500017,41.09912109375],[8.205664062500006,40.997460937499994],[8.252734375000017,40.994140625],[8.34375,41.101611328124996]]}},{"type":"Feature","properties":{"featurecla":"Coastline"},"geometry":{"type":"LineString","coordinates":[[4.059179687500006,40.075097656249994],[3.853417968750023,40.063037109374996],[3.842675781250023,39.976367187499996],[4.293652343750011,39.841845703124996],[4.315136718750011,39.917236328125],[4.225781250000011,40.032373046874994],[4.059179687500006,40.075097656249994]]}},{"type":"Feature","properties":{"featurecla":"Coastline"},"geometry":{"type":"LineString","coordinates":[[1.417187500000011,38.739648437499994],[1.40576171875,38.67099609375],[1.593945312500011,38.6720703125],[1.592675781250023,38.701464843749996],[1.496875,38.7119140625],[1.436328125000017,38.768212890624994],[1.417187500000011,38.739648437499994]]}},{"type":"Feature","properties":{"featurecla":"Coastline"},"geometry":{"type":"LineString","coordinates":[[1.3486328125,39.080810546875],[1.223339843750011,38.903857421874996],[1.256933593750006,38.87900390625],[1.408984375000017,38.857275390625],[1.445214843750023,38.918701171875],[1.623632812500006,39.038818359375],[1.564453125,39.121044921875],[1.3486328125,39.080810546875]]}},{"type":"Feature","properties":{"featurecla":"Coastline"},"geometry":{"type":"LineString","coordinates":[[14.448339843750006,35.957421875],[14.351269531250011,35.978417968749994],[14.352343750000017,35.872265625],[14.436425781250023,35.821679687499994],[14.53271484375,35.820214843749994],[14.566210937500017,35.852734375],[14.448339843750006,35.957421875]]}},{"type":"Feature","properties":{"featurecla":"Coastline"},"geometry":{"type":"LineString","coordinates":[[15.231054687500006,44.062304687499996],[15.065820312500023,44.157666015625],[15.246679687500006,44.02705078125],[15.231054687500006,44.062304687499996]]}},{"type":"Feature","properties":{"featurecla":"Coastline"},"geometry":{"type":"LineString","coordinates":[[14.739160156250023,45.065478515624996],[14.571093750000017,45.224755859374994],[14.524609375000011,45.146826171875],[14.437890625000023,45.0986328125],[14.51171875,45.035400390625],[14.612988281250011,45.025439453124996],[14.68701171875,44.955615234374996],[14.810253906250011,44.97705078125],[14.739160156250023,45.065478515624996]]}},{"type":"Feature","properties":{"featurecla":"Coastline"},"geometry":{"type":"LineString","coordinates":[[14.856640625000011,44.71484375],[14.754199218750017,44.84482421875],[14.672460937500006,44.824365234374994],[14.67822265625,44.769873046875],[14.856640625000011,44.71484375]]}},{"type":"Feature","properties":{"featurecla":"Coastline"},"geometry":{"type":"LineString","coordinates":[[14.912792968750011,44.48583984375],[15.16259765625,44.3091796875],[15.239941406250011,44.3501953125],[14.741894531250011,44.69736328125],[14.912792968750011,44.48583984375]]}},{"type":"Feature","properties":{"featurecla":"Coastline"},"geometry":{"type":"LineString","coordinates":[[14.952539062500023,44.1171875],[14.865039062500017,44.16796875],[15.135839843750006,43.907275390624996],[15.20166015625,43.897753906249996],[14.952539062500023,44.1171875]]}},{"type":"Feature","properties":{"featurecla":"Coastline"},"geometry":{"type":"LineString","coordinates":[[15.374218750000011,43.914794921875],[15.437207031250011,43.89951171875],[15.371386718750017,43.973828125],[15.27001953125,44.0107421875],[15.374218750000011,43.914794921875]]}},{"type":"Feature","properties":{"featurecla":"Coastline"},"geometry":{"type":"LineString","coordinates":[[14.467578125000017,44.725341796875],[14.467382812500006,44.97021484375],[14.39375,45.03125],[14.358203125000017,45.167431640625],[14.33125,45.164990234375],[14.285839843750011,45.14462890625],[14.340039062500011,45.019970703125],[14.312402343750023,44.900390625],[14.41953125,44.6703125],[14.480371093750023,44.621240234374994],[14.467578125000017,44.725341796875]]}},{"type":"Feature","properties":{"featurecla":"Coastline"},"geometry":{"type":"LineString","coordinates":[[17.389550781250023,42.798632812499996],[17.344140625000023,42.790380859375],[17.744238281250006,42.700341796874994],[17.607812500000023,42.76904296875],[17.389550781250023,42.798632812499996]]}},{"type":"Feature","properties":{"featurecla":"Coastline"},"geometry":{"type":"LineString","coordinates":[[20.788867187500017,38.14208984375],[20.695214843750023,38.24619140625],[20.62470703125001,38.267871093749996],[20.6123046875,38.383349609374996],[20.56318359375001,38.474951171875],[20.519628906250006,38.332324218749996],[20.4814453125,38.318212890625],[20.43505859375,38.356201171875],[20.35224609375001,38.221728515624996],[20.3525390625,38.1798828125],[20.4521484375,38.234179687499996],[20.523535156250006,38.106640625],[20.568945312500006,38.09765625],[20.60615234375001,38.1197265625],[20.761328125,38.070556640625],[20.788867187500017,38.14208984375]]}},{"type":"Feature","properties":{"featurecla":"Coastline"},"geometry":{"type":"LineString","coordinates":[[20.83984375,37.840722656249994],[20.758691406250023,37.852978515625],[20.691503906250006,37.929541015625],[20.619531250000023,37.855029296874996],[20.70380859375001,37.743457031249996],[20.81855468750001,37.66474609375],[20.909082031250023,37.73212890625],[20.993945312500017,37.7080078125],[20.83984375,37.840722656249994]]}},{"type":"Feature","properties":{"featurecla":"Coastline"},"geometry":{"type":"LineString","coordinates":[[20.647851562500023,38.600976562499994],[20.71484375,38.638330078124994],[20.719628906250023,38.799169921875],[20.694140625000017,38.84423828125],[20.634667968750023,38.817578125],[20.557910156250017,38.661865234375],[20.5546875,38.582568359374996],[20.647851562500023,38.600976562499994]]}},{"type":"Feature","properties":{"featurecla":"Coastline"},"geometry":{"type":"LineString","coordinates":[[20.701269531250006,38.451416015625],[20.623632812500006,38.480322265625],[20.709277343750017,38.318603515625],[20.758691406250023,38.329443359375],[20.701269531250006,38.451416015625]]}},{"type":"Feature","properties":{"featurecla":"Coastline"},"geometry":{"type":"LineString","coordinates":[[19.95527343750001,39.47041015625],[19.904101562500017,39.619482421875],[19.8466796875,39.668115234374994],[19.936816406250017,39.746728515624994],[19.926074218750017,39.773730468749996],[19.83857421875001,39.820117187499996],[19.646484375,39.76708984375],[19.64892578125,39.726171875],[19.808886718750017,39.585302734375],[19.88398437500001,39.4615234375],[20.099609375,39.376611328124994],[20.077929687500017,39.43271484375],[19.95527343750001,39.47041015625]]}},{"type":"Feature","properties":{"featurecla":"Coastline"},"geometry":{"type":"LineString","coordinates":[[23.51142578125001,37.901171875],[23.55097656250001,37.92587890625],[23.515527343750023,37.98603515625],[23.462207031250017,37.980371093749994],[23.419335937500023,37.93125],[23.51142578125001,37.901171875]]}},{"type":"Feature","properties":{"featurecla":"Coastline"},"geometry":{"type":"LineString","coordinates":[[22.950488281250017,36.383935546874994],[22.905664062500023,36.3203125],[22.91083984375001,36.220996093749996],[22.939453125,36.176220703125],[23.04218750000001,36.146386718749994],[23.097070312500023,36.24658203125],[22.950488281250017,36.383935546874994]]}},{"type":"Feature","properties":{"featurecla":"Coastline"},"geometry":{"type":"LineString","coordinates":[[25.402734375000023,37.419140625],[25.462988281250006,37.47109375],[25.34814453125,37.509179687499994],[25.31269531250001,37.489306640624996],[25.30712890625,37.412988281249994],[25.402734375000023,37.419140625]]}},{"type":"Feature","properties":{"featurecla":"Coastline"},"geometry":{"type":"LineString","coordinates":[[24.483789062500023,37.210205078125],[24.4248046875,37.131982421874994],[24.48652343750001,37.11005859375],[24.535937500000017,37.16767578125],[24.483789062500023,37.210205078125]]}},{"type":"Feature","properties":{"featurecla":"Coastline"},"geometry":{"type":"MultiLineString","coordinates":[[[-2.041839027166244,47.0],[-2.092480468749983,46.865039062499996],[-1.786523437499994,46.51484375],[-1.392480468749994,46.35009765625],[-1.146289062499989,46.311376953125],[-1.104394531249994,45.925341796874996],[-1.03173828125,45.741064453125],[-1.2099609375,45.770898437499994],[-1.195996093749983,45.714453125],[-0.790771484375,45.468017578125],[-0.733105468749983,45.384619140625],[-0.64111328125,45.090185546875],[-0.548486328124994,45.0005859375],[-0.691113281249983,45.09345703125],[-0.766650390624989,45.314355468749994],[-0.826318359374994,45.380664062499996],[-1.081005859374983,45.532421875],[-1.189062499999977,45.161474609375],[-1.245214843749977,44.66669921875],[-1.152880859374989,44.764013671875],[-1.076953124999989,44.68984375],[-1.170800781249994,44.66181640625],[-1.245507812499994,44.559863281249996],[-1.345996093749989,44.02021484375],[-1.48486328125,43.563769531249996],[-1.631445312499977,43.438037109374996],[-2.196679687499994,43.321923828124994],[-2.337109374999983,43.328027343749994],[-2.607080078124994,43.412744140624994],[-2.875048828124989,43.454443359375],[-3.045605468749983,43.37158203125],[-3.604638671874994,43.519482421875],[-3.774023437499977,43.477880859375],[-3.889355468749983,43.499414062499994],[-4.312792968749989,43.41474609375],[-4.523046874999977,43.41572265625],[-5.315722656249989,43.553173828125],[-5.665820312499989,43.582470703125],[-5.8466796875,43.645068359374996],[-6.080126953124989,43.594921875],[-6.900683593749989,43.58564453125],[-7.060986328124983,43.553955078125],[-7.261962890625,43.594628906249994],[-7.503613281249983,43.73994140625],[-7.594580078124977,43.72734375],[-7.698144531249994,43.764550781249994],[-7.852734374999983,43.706982421875],[-8.004687499999989,43.694384765624996],[-8.256738281249994,43.579882812499996],[-8.288867187499989,43.539599609374996],[-8.248925781249994,43.439404296875],[-8.35546875,43.396826171875],[-8.665625,43.3166015625],[-8.873681640624994,43.334423828125],[-9.178076171874977,43.1740234375],[-9.235205078124977,42.976904296875],[-9.041601562499977,42.814013671874996],[-8.927197265624983,42.798583984375],[-9.035058593749994,42.662353515625],[-9.033105468749994,42.59384765625],[-8.8115234375,42.64033203125],[-8.812109374999977,42.470068359375],[-8.730029296874989,42.41171875],[-8.809960937499994,42.33447265625],[-8.815820312499994,42.28525390625],[-8.69091796875,42.274169921875],[-8.88720703125,42.105273437499996],[-8.878320312499994,41.946875],[-8.777148437499989,41.941064453124994],[-8.878222656249989,41.832080078124996],[-8.887597656249994,41.764599609375],[-8.846386718749983,41.70517578125],[-8.755419921874989,41.698388671874994],[-8.810839843749989,41.651953125],[-8.8056640625,41.560009765625],[-8.659814453124994,41.086279296875],[-8.684619140624989,40.7525390625],[-8.772412109374983,40.6056640625],[-8.872656249999977,40.259082031249996],[-8.886621093749994,40.179443359375],[-8.837841796874983,40.115673828125],[-9.148291015624977,39.542578125],[-9.374755859375,39.33828125],[-9.352832031249989,39.24814453125],[-9.414355468749989,39.112109375],[-9.479736328125,38.798779296875],[-9.47412109375,38.730859375],[-9.356738281249989,38.697900390624994],[-9.135791015624989,38.7427734375],[-8.954296874999983,39.016064453125],[-8.791601562499977,39.078173828124996],[-8.938085937499977,38.998095703124996],[-9.00048828125,38.90302734375],[-8.97705078125,38.8029296875],[-9.021484375,38.746875],[-9.093310546874989,38.696679687499994],[-9.250390625,38.65673828125],[-9.203369140625,38.538964843749994],[-9.21328125,38.448095703125],[-8.798876953124989,38.5181640625],[-8.668310546874977,38.42431640625],[-8.881103515625,38.446679687499994],[-8.8109375,38.299755859375],[-8.80224609375,38.183837890625],[-8.878955078124989,37.95869140625],[-8.82265625,37.871875],[-8.791845703124977,37.7328125],[-8.814160156249983,37.430810546874994],[-8.997802734375,37.032275390624996],[-8.935351562499989,37.016015625],[-8.848437499999989,37.07568359375],[-8.739111328124977,37.074609375],[-8.59765625,37.121337890625],[-8.136767578124989,37.077050781249994],[-7.939697265625,37.005419921874996],[-7.834130859374994,37.005712890625],[-7.493603515624983,37.168310546875],[-7.174951171874994,37.208789062499996],[-6.974658203124989,37.1984375],[-6.86376953125,37.27890625],[-6.884619140624977,37.194238281249994],[-6.492431640625,36.954638671874996],[-6.396191406249983,36.831640625],[-6.320947265624994,36.908496093749996],[-6.216796875,36.91357421875],[-6.328320312499983,36.84814453125],[-6.412255859374994,36.728857421875],[-6.384130859374977,36.637011718749996],[-6.268945312499994,36.596728515624996],[-6.226269531249983,36.42646484375],[-6.040673828124994,36.188427734375],[-5.960693359375,36.18173828125],[-5.808398437499989,36.088330078125],[-5.62548828125,36.025927734374996],[-5.4625,36.073779296874996],[-5.443603515625,36.1505859375],[-5.360937499999977,36.134912109374994],[-5.329687499999977,36.235742187499994],[-5.171484374999977,36.423779296875],[-4.935302734375,36.50205078125],[-4.674121093749989,36.5064453125],[-4.434863281249989,36.700244140624996],[-4.366845703124994,36.718115234375],[-3.827783203124994,36.7560546875],[-3.43125,36.707910156249994],[-3.149169921875,36.75849609375],[-2.787548828124983,36.714746093749994],[-2.670605468749983,36.74755859375],[-2.595703125,36.806494140625],[-2.452832031249983,36.83115234375],[-2.305566406249994,36.81982421875],[-2.187695312499983,36.745458984375],[-2.111523437499983,36.776660156249996],[-1.939306640624977,36.945849609374996],[-1.797607421875,37.232861328125],[-1.640966796874977,37.386962890625],[-1.327539062499994,37.5611328125],[-0.822167968749994,37.58076171875],[-0.721582031249994,37.6310546875],[-0.823095703124977,37.71162109375],[-0.814648437499983,37.769921875],[-0.683203124999977,37.992041015625],[-0.646777343749989,38.15185546875],[-0.550683593749994,38.203125],[-0.520800781249989,38.317285156249994],[-0.38125,38.43564453125],[-0.052734375,38.585693359375],[0.201562500000023,38.759179687499994],[0.154882812500006,38.824658203125],[-0.034130859374983,38.8912109375],[-0.204931640624977,39.06259765625],[-0.328955078124977,39.41708984375],[-0.327001953124977,39.519873046875],[-0.075146484374983,39.875927734375],[0.363671875000023,40.31904296875],[0.596093750000023,40.614501953125],[0.720605468750023,40.63046875],[0.89111328125,40.72236328125],[0.796093750000011,40.80380859375],[0.714648437500017,40.8228515625],[1.032910156250011,41.062060546874996],[2.082617187500006,41.287402343749996],[2.310937500000023,41.46650390625],[3.0048828125,41.767431640625],[3.248046875,41.944238281249994],[3.238085937500017,42.0822265625],[3.150390625,42.162451171875],[3.166406250000023,42.256494140624994],[3.306738281250006,42.288964843749994],[3.090917968750006,42.590869140624996],[3.043066406250006,42.837890625],[3.0517578125,42.91513671875],[3.258886718750006,43.193212890625],[3.784765625,43.46162109375],[3.910839843750011,43.5630859375],[4.052636718750023,43.593066406249996],[4.22421875,43.479638671874994],[4.712109375000011,43.373291015625],[5.059765625000011,43.44453125],[5.073144531250023,43.366601562499994],[5.320214843750023,43.344921875],[5.406542968750017,43.228515625],[5.671582031250011,43.17783203125],[5.809472656250023,43.097900390625],[6.030566406250017,43.100976562499994],[6.115917968750011,43.07236328125],[6.570214843750023,43.199072265625],[6.6572265625,43.261669921875],[6.716601562500017,43.373583984374996],[7.261523437500017,43.69609375],[8.004980468750006,43.876757812499996],[8.551953125000011,44.346142578125],[8.765820312500011,44.422314453125],[9.289355468750017,44.319238281249994],[9.730859375000023,44.101171875],[10.047656250000017,44.019970703125],[10.188085937500006,43.947509765625],[10.245800781250011,43.852099609374996],[10.320507812500011,43.513085937499994],[10.447558593750017,43.37119140625],[10.520800781250017,43.20380859375],[10.514843750000011,42.967529296875],[10.708398437500023,42.936328125],[10.803125,42.804296875],[10.937792968750017,42.738720703125],[11.167773437500017,42.53515625],[11.184765625000011,42.456591796874996],[11.103222656250011,42.4166015625],[11.141210937500006,42.389892578125],[11.296289062500023,42.423291015625],[11.637304687500006,42.287548828125],[11.807031250000023,42.08203125],[12.075292968750006,41.940869140625],[12.630859375,41.469677734375],[12.84921875,41.408740234374996],[13.088671875000017,41.24384765625],[13.246875,41.288867187499996],[13.554785156250006,41.232177734375],[13.669726562500017,41.2544921875],[13.7333984375,41.235644531249996],[13.859765625000023,41.12998046875],[14.047656250000017,40.8703125],[14.044335937500023,40.812255859375],[14.308886718750017,40.812646484374994],[14.460546875,40.7287109375],[14.339941406250006,40.598828125],[14.765722656250006,40.668408203125],[14.839550781250011,40.62998046875],[14.947656250000023,40.4693359375],[14.986132812500017,40.377490234374996],[14.929101562500023,40.3095703125],[14.950878906250011,40.239013671875],[15.29453125,40.07001953125],[15.585156250000011,40.05283203125],[15.692773437500023,39.990185546875],[15.854394531250023,39.626513671874996],[16.02363281250001,39.35361328125],[16.107421875,39.023828125],[16.2099609375,38.94111328125],[16.19677734375,38.759228515625],[15.972363281250011,38.71259765625],[15.87890625,38.613916015624994],[15.90478515625,38.48349609375],[15.822363281250006,38.302978515625],[15.7001953125,38.2623046875],[15.64306640625,38.175390625],[15.645800781250017,38.034228515624996],[15.724511718750023,37.939111328124994],[16.05683593750001,37.941845703125],[16.28242187500001,38.249560546874996],[16.54560546875001,38.409082031249994],[16.57421875,38.493554687499994],[16.558984375000023,38.714794921875],[16.61669921875,38.800146484375],[16.75546875,38.889697265624996],[16.951464843750017,38.939794921875],[17.098535156250023,38.919335937499994],[17.174609375000017,38.998095703124996],[17.122949218750023,39.136572265625],[17.114550781250017,39.380615234375],[16.824316406250006,39.5783203125],[16.597753906250006,39.638916015625],[16.521875,39.74755859375],[16.52998046875001,39.859667968749996],[16.66962890625001,40.13720703125],[16.92822265625,40.458056640624996],[17.03125,40.513476562499996],[17.179980468750017,40.502783203125],[17.257714843750023,40.399072265624994],[17.395800781250017,40.340234375],[17.865039062500017,40.280175781249994],[18.077929687500017,39.936962890625],[18.219335937500006,39.8525390625],[18.34375,39.82138671875],[18.48583984375,40.104833984375],[18.46064453125001,40.221044921875],[18.328222656250006,40.370849609375],[18.0361328125,40.56494140625],[17.954980468750023,40.655175781249994],[17.47421875,40.840576171875],[17.103417968750023,41.062158203124994],[16.551855468750006,41.23203125],[16.012597656250023,41.435400390625],[15.900488281250006,41.512060546875],[15.913769531250011,41.620849609375],[16.151269531250023,41.75849609375],[16.18916015625001,41.814013671874996],[16.164648437500006,41.89619140625],[15.964062500000011,41.939453125],[15.404980468750011,41.913232421874994],[15.16875,41.934033203125],[14.866113281250023,42.052539062499996],[14.540722656250011,42.244287109374994],[14.182714843750006,42.5064453125],[14.010449218750011,42.68955078125],[13.8046875,43.18037109375],[13.564160156250011,43.5712890625],[13.295312500000023,43.686083984374996],[12.907031250000017,43.921191406249996],[12.691113281250011,43.9947265625],[12.396289062500017,44.223876953125],[12.304980468750017,44.429443359375],[12.248339843750017,44.722509765625],[12.27890625,44.8322265625],[12.384472656250011,44.79833984375],[12.463574218750011,44.84521484375],[12.5234375,44.96796875],[12.392480468750023,45.039794921875],[12.286328125000011,45.20771484375],[12.225683593750006,45.241503906249996],[12.274316406250023,45.446044921875],[12.491796875,45.546289062499994],[12.5361328125,45.544921875],[12.43212890625,45.467919921874994],[12.49755859375,45.461669921875],[13.0302734375,45.6375],[13.206347656250017,45.771386718749994],[13.465136718750017,45.7099609375],[13.558203125,45.770703125],[13.628320312500023,45.770947265625],[13.783300781250006,45.627246093749996],[13.5171875,45.481787109375],[13.629296875000023,45.108203125],[13.860742187500023,44.83740234375],[13.9658203125,44.83564453125],[14.236328125,45.15966796875],[14.312695312500011,45.337792968749994],[14.550488281250011,45.297705078125],[14.854589843750006,45.081005859375],[14.906542968750017,44.97138671875],[14.895214843750011,44.706591796874996],[14.981347656250023,44.602929687499994],[15.269824218750017,44.38349609375],[15.470996093750017,44.27197265625],[15.284277343750006,44.288818359375],[15.122949218750023,44.256787109375],[15.185839843750017,44.172119140625],[15.499414062500023,43.9087890625],[15.941503906250006,43.656640625],[15.942578125000011,43.5689453125],[15.985546875000011,43.519775390625],[16.13105468750001,43.506298828125],[16.393945312500023,43.543359375],[16.903125,43.392431640625],[17.12939453125,43.2111328125],[17.329882812500017,43.114892578124994],[17.7236328125,42.85068359375],[17.219824218750006,43.02587890625],[17.04541015625,43.014892578125],[17.258203125000023,42.96845703125],[17.5849609375,42.837158203125],[17.823828125,42.797412109374996],[18.517480468750023,42.432910156249996],[18.645898437500023,42.442724609375],[18.632910156250006,42.378076171874994],[18.89423828125001,42.249462890625],[19.12226562500001,42.060498046875],[19.186425781250023,41.948632812499994],[19.342382812500006,41.869091796875],[19.46826171875,41.85615234375],[19.577539062500023,41.7875],[19.57568359375,41.640429687499996],[19.497363281250017,41.5626953125],[19.440625,41.424755859375],[19.480078125,41.236376953124996],[19.461230468750017,40.93330078125],[19.3375,40.663818359375],[19.45917968750001,40.40537109375],[19.440527343750006,40.37568359375],[19.322265625,40.407080078125],[19.39814453125001,40.28486328125],[19.48457031250001,40.2099609375],[19.851855468750017,40.0435546875],[19.96484375,39.872265625],[20.001269531250017,39.709423828125],[20.19140625,39.545800781249994],[20.30078125,39.327099609375],[20.46826171875,39.255273437499994],[20.71337890625,39.03515625],[20.779687500000023,39.008544921875],[21.11835937500001,39.02998046875],[21.15234375,38.9220703125],[21.111621093750017,38.896289062499996],[20.893164062500006,38.94111328125],[20.77734375,38.927880859374994],[20.7685546875,38.874414062499994],[20.77685546875,38.807519531249994],[20.87324218750001,38.775732421875],[20.9921875,38.65400390625],[21.113183593750023,38.384667968749994],[21.1826171875,38.345556640625],[21.303320312500006,38.373925781249994],[21.3310546875,38.4873046875],[21.472558593750023,38.32138671875],[21.96533203125,38.412451171875],[22.319921875,38.356835937499994],[22.421679687500017,38.438525390624996],[22.834375,38.234716796875],[23.14892578125,38.176074218749996],[23.183496093750023,38.133691406249994],[23.1220703125,38.07333984375],[22.893164062500006,38.050927734374994],[22.920312500000023,37.958300781249996],[22.799609375000017,37.981201171875],[22.55585937500001,38.113232421875],[22.24375,38.188720703125],[21.95332031250001,38.321191406249994],[21.82470703125,38.328125],[21.65839843750001,38.175097656249996],[21.403710937500023,38.196679687499994],[21.30810546875,38.02744140625],[21.12470703125001,37.8916015625],[21.137988281250017,37.854150390624994],[21.288476562500023,37.77451171875],[21.32929687500001,37.669335937499994],[21.5712890625,37.541015625],[21.67890625000001,37.38720703125],[21.692480468750006,37.30927734375],[21.57880859375001,37.200390625],[21.582910156250023,37.080957031249994],[21.738085937500017,36.863232421875],[21.892382812500017,36.7373046875],[21.93427734375001,36.803662109375],[21.95556640625,36.990087890625],[22.080468750000023,37.028955078124994],[22.16474609375001,36.90283203125],[22.23115234375001,36.882568359375],[22.3759765625,36.701904296875],[22.374804687500017,36.513574218749994],[22.427734375,36.47578125],[22.48945312500001,36.446923828124994],[22.489062500000017,36.568164062499996],[22.6083984375,36.779736328125],[22.717187500000023,36.7939453125],[22.779882812500006,36.786181640624996],[22.832324218750017,36.687109375],[22.98291015625,36.528369140624996],[23.16015625,36.448095703125],[23.041015625,36.64453125],[23.073535156250017,36.774951171874996],[23.060351562500017,36.853515625],[22.85107421875,37.290820312499996],[22.765039062500023,37.393310546875],[22.725390625000017,37.542138671874994],[22.775,37.585107421874994],[23.01513671875,37.481787109375],[23.096484375000017,37.440576171874994],[23.1,37.36376953125],[23.161523437500023,37.333837890625],[23.4892578125,37.440185546875],[23.39619140625001,37.57978515625],[23.197558593750017,37.62021484375],[23.14716796875001,37.716259765625],[23.14716796875001,37.7953125],[23.03632812500001,37.878369140625],[23.193652343750017,37.959033203124996],[23.420214843750017,37.992089843749994],[23.501757812500017,38.03486328125],[23.580468750000023,38.010546875],[23.971582031250023,37.6767578125],[24.01972656250001,37.677734375],[24.062304687500017,37.77451171875],[24.024511718750006,38.139794921874994],[23.96699218750001,38.275],[23.683984375000023,38.352441406249994],[23.569628906250017,38.489404296874994],[23.368945312500017,38.525537109374994],[23.2529296875,38.66123046875],[23.1376953125,38.66796875],[23.020312500000017,38.74189453125],[22.569140625000017,38.867480468749996],[22.802636718750023,38.901611328125],[23.066699218750017,39.037939453125],[22.96552734375001,39.030908203124994],[22.886035156250017,39.169970703124996],[22.838964843750006,39.25859375],[22.92138671875,39.30634765625],[22.99287109375001,39.3310546875],[23.16171875,39.257763671875],[23.16875,39.21044921875],[23.119433593750017,39.132763671875],[23.154687500000023,39.101464843749994],[23.218359375,39.104394531249994],[23.327734375,39.17490234375],[23.2333984375,39.358447265624996],[23.103417968750023,39.492041015625],[22.978808593750017,39.563818359375],[22.835742187500017,39.800585937499996],[22.592187500000023,40.036914062499996],[22.5693359375,40.1193359375],[22.642675781250006,40.366601562499994],[22.629492187500006,40.495556640625],[22.811425781250023,40.57861328125],[22.922265625000023,40.590869140624996],[22.851367187500017,40.490625],[22.896484375,40.39990234375],[23.31201171875,40.216455078124994],[23.328222656250006,40.08994140625],[23.395605468750006,39.98984375],[23.627343750000023,39.924072265625],[23.674121093750017,39.958886718749994],[23.433203125,40.1154296875],[23.38642578125001,40.221972656249996],[23.42626953125,40.263964843749996],[23.66455078125,40.223828125],[23.835351562500023,40.022265625],[23.947070312500017,39.965576171875],[24.000781250000017,40.024609375],[23.96748046875001,40.114550781249996],[23.720507812500017,40.286279296874994],[23.727929687500023,40.329736328124994],[23.82343750000001,40.368017578125],[23.913183593750006,40.358789062499994],[24.158789062500006,40.280029296875],[24.343359375,40.147705078125],[24.212792968750023,40.327783203124994],[24.030566406250017,40.409326171874994],[23.866796875,40.4185546875],[23.831933593750023,40.48154296875],[23.87890625,40.544384765625],[23.743261718750006,40.677001953125],[23.762792968750006,40.747802734375],[24.082324218750017,40.724072265625],[24.234375,40.7861328125],[24.3837890625,40.912744140624994],[24.47705078125,40.94775390625],[24.79296875,40.85751953125],[25.1044921875,40.9947265625],[25.250097656250006,40.9328125],[25.325292968750006,40.943115234375],[25.49677734375001,40.88779296875],[25.85566406250001,40.844091796875],[26.0107421875,40.769140625],[26.10546875,40.611328125],[26.792089843750006,40.626611328124994],[26.7203125,40.544238281249996],[26.44746093750001,40.44501953125],[26.253808593750023,40.314697265625],[26.260156250000023,40.202392578125],[26.202734375,40.075390625],[26.329980468750023,40.123388671875],[26.772070312500006,40.498046875],[27.25800781250001,40.687353515625],[27.43017578125,40.83994140625],[27.499414062500023,40.97314453125],[27.747363281250017,41.01328125],[27.925195312500023,40.990576171875],[28.172167968750017,41.080712890624994],[28.780371093750006,40.974169921874996],[28.95625,41.008203125],[29.057226562500006,41.229736328125],[28.34638671875001,41.466357421874996],[28.197851562500006,41.554492187499996],[28.05029296875,41.729150390624994],[27.9873046875,41.854882812499994],[28.014453125000017,41.969042968749996],[27.982714843750017,42.047412109374996],[27.70820312500001,42.349951171875],[27.484765625000023,42.468066406249996],[27.753710937500017,42.70654296875],[27.88886718750001,42.74970703125],[27.92890625000001,43.1861328125],[28.133691406250023,43.39560546875],[28.319628906250017,43.42685546875],[28.465429687500006,43.389306640624994],[28.561816406250017,43.501318359375],[28.590722656250023,43.797412109374996],[28.658593750000023,43.983837890625],[28.645410156250023,44.295654296875],[28.88818359375,44.574755859374996],[28.807031250000023,44.5650390625],[28.849023437500023,44.71630859375],[28.926171875000023,44.810009765625],[28.891503906250023,44.91865234375],[28.930566406250023,44.9658203125],[28.98066406250001,44.992919921875],[29.0953125,44.975048828125],[29.047753906250023,44.925683593749994],[29.0810546875,44.798828125],[29.048242187500023,44.757568359375],[29.557519531250023,44.843408203124994],[29.60546875,44.915478515625],[29.726953125000023,45.343310546874996],[29.670312500000023,45.540673828124994],[29.601171875,45.6],[29.62841796875,45.722460937499996],[29.68505859375,45.7546875],[29.821191406250023,45.732080078124994],[30.219042968750017,45.866748046874996],[30.511523437500017,46.105371093749994],[30.65673828125,46.266503906249994],[30.796289062500023,46.552001953125],[31.136816406250006,46.624462890625],[31.402929687500006,46.628808593749994],[31.563378906250023,46.777294921875],[31.532128906250023,46.66474609375],[31.779589843750017,46.631640625],[31.872851562500017,46.649755859375],[31.912695312500006,46.926123046875],[31.86790156497232,47.0]],[[31.927637561704252,47.0],[31.96406250000001,46.854833984375],[31.944921875,46.784375],[32.04433593750002,46.642480468749994],[32.12724609375002,46.597216796874996],[32.354101562500006,46.56484375],[32.57802734375002,46.615625],[32.361328125,46.474951171875],[31.55488281250001,46.554296875],[31.713671875000017,46.47177734375],[32.00849609375001,46.429980468749996],[31.99169921875,46.364404296874994],[31.77998046875001,46.324658203125],[31.83125,46.281689453125],[32.035742187500006,46.260986328125],[32.47675781250001,46.08369140625],[33.202246093750006,46.175732421875],[33.42988281250001,46.0576171875],[33.59414062500002,46.096240234374996],[33.66484375000002,45.947070312499996],[33.28007812500002,45.765234375],[33.14228515625001,45.74921875],[32.50800781250001,45.40380859375],[32.611328125,45.328076171875],[32.77265625000001,45.358984375],[32.91865234375001,45.34814453125],[33.18691406250002,45.194775390625],[33.26152343750002,45.170751953125],[33.39248046875002,45.187841796875],[33.55517578125,45.09765625],[33.61220703125002,44.9078125],[33.45068359375,44.553662109375],[33.655859375,44.433203125],[33.90996093750002,44.387597656249994],[34.07441406250001,44.423828125],[34.28173828125,44.538427734375],[34.46992187500001,44.7216796875],[34.716894531250006,44.80712890625],[35.08769531250002,44.802636718749994],[35.15478515625,44.896337890625],[35.35781250000002,44.978417968749994],[35.47255859375002,45.098486328125],[35.67753906250002,45.102001953125],[35.8701171875,45.005322265625],[36.22988281250002,45.0259765625],[36.39335937500002,45.065380859375],[36.45078125,45.232324218749994],[36.575,45.3935546875],[36.29033203125002,45.45673828125],[36.170507812500006,45.453076171875],[36.01289062500001,45.3716796875],[35.83349609375,45.401611328125],[35.55800781250002,45.310888671875],[35.37392578125002,45.35361328125],[35.02285156250002,45.700976562499996],[34.90664062500002,45.878808593749994],[34.85732421875002,45.987353515624996],[34.849609375,46.189892578125],[35.0640625,46.267236328124994],[35.23037109375002,46.440625],[35.2919921875,46.370703125],[35.28017578125002,46.2794921875],[35.01455078125002,46.106005859374996],[35.13232421875,46.125878906249994],[35.25664062500002,46.20390625],[35.40019531250002,46.381396484374996],[35.8271484375,46.624316406249996],[36.02490234375,46.666796875],[36.27949218750001,46.65859375],[36.55878906250001,46.7626953125],[36.68867187500001,46.764111328125],[36.79482421875002,46.714404296874996],[37.04755859375001,46.876220703125],[37.33984375,46.916894531249994],[37.447116464075584,47.0]],[[39.06167532915281,47.0],[38.43867187500001,46.8130859375],[38.5009765625,46.663671875],[38.22998046875,46.70126953125],[37.96796875000001,46.618017578125],[37.76650390625002,46.636132812499994],[37.91386718750002,46.406494140625],[38.077734375,46.394335937499996],[38.492285156250006,46.09052734375],[38.18359375,46.09482421875],[38.07958984375,45.934814453125],[38.073828125,46.01708984375],[38.014257812500006,46.047753906249994],[37.93310546875,46.001708984375],[37.840917968750006,45.799560546875],[37.66923828125002,45.654052734375],[37.612402343750006,45.564697265625],[37.609960937500006,45.49951171875],[37.671875,45.48837890625],[37.64716796875001,45.377197265625],[37.264257812500006,45.3109375],[37.21357421875001,45.272314453125],[36.86591796875001,45.427050781249996],[36.72041015625001,45.371875],[36.94121093750002,45.289697265624994],[36.619140625,45.185498046875],[36.62763671875001,45.151318359375],[37.20478515625001,44.971972656249996],[37.35234375000002,44.788378906249996],[37.4951171875,44.695263671875],[37.70488281250002,44.661376953125],[37.85146484375002,44.698828125],[38.18125,44.419677734375],[38.71728515625,44.2880859375],[39.32939453125002,43.897265625],[39.873632812500006,43.472802734374994],[40.46210937500001,43.145703125],[40.83662109375001,43.0634765625],[41.061621093750006,42.930859375],[41.12871093750002,42.828125],[41.41943359375,42.737646484375],[41.48876953125,42.659326171874994],[41.66328125000001,42.146875],[41.76298828125002,41.970019531249996],[41.7587890625,41.817138671875],[41.701757812500006,41.705419921875],[41.41435546875002,41.423632812499996],[41.08359375,41.261181640625],[40.81953125000001,41.190234375],[40.6875,41.107421875],[40.265234375,40.961328125],[40.12841796875,40.943017578124994],[39.80791015625002,40.98251953125],[39.426367187500006,41.1064453125],[38.38105468750001,40.92451171875],[37.91005859375002,41.001904296875],[37.765625,41.07890625],[37.06621093750002,41.184423828125],[36.99199218750002,41.275390625],[36.77773437500002,41.3634765625],[36.647070312500006,41.3525390625],[36.50966796875002,41.2625],[36.405371093750006,41.274609375],[36.17919921875,41.4265625],[36.0517578125,41.682568359375],[35.91982421875002,41.713720703125],[35.55800781250002,41.634033203125],[35.29775390625002,41.728515625],[35.1220703125,41.89111328125],[35.11406250000002,41.956982421875],[35.154882812500006,42.0275390625],[35.006445312500006,42.06328125],[34.75048828125,41.956835937499996],[33.38134765625,42.017578125],[32.30644531250002,41.72958984375],[32.08642578125,41.589208984375],[31.4580078125,41.32001953125],[31.3466796875,41.15791015625],[31.2548828125,41.1076171875],[30.81005859375,41.084863281249994],[30.34492187500001,41.196923828124994],[29.919335937500023,41.150830078125],[29.322265625,41.227734375],[29.14814453125001,41.221044921875],[29.094335937500006,41.17724609375],[29.045507812500006,41.007568359375],[29.113867187500006,40.937841796875],[29.36474609375,40.80927734375],[29.84921875,40.760107421875],[29.84492187500001,40.738085937499996],[28.9580078125,40.63056640625],[28.787890625000017,40.534033203125],[29.05517578125,40.424169921875],[29.007128906250017,40.38974609375],[28.630273437500023,40.37646484375],[28.2890625,40.40302734375],[27.96259765625001,40.369873046875],[27.92890625000001,40.380419921874996],[27.989550781250017,40.489453125],[27.874902343750023,40.512939453125],[27.731835937500023,40.481494140624996],[27.848535156250023,40.381738281249994],[27.72802734375,40.32880859375],[27.4755859375,40.319921875],[27.332617187500006,40.375927734375],[27.284570312500023,40.455615234374996],[27.121679687500006,40.45234375],[27.012109375000023,40.396337890625],[26.738085937500017,40.400244140625],[26.475390625000017,40.197265625],[26.313378906250023,40.025],[26.18134765625001,39.990087890625],[26.149804687500023,39.872851562499996],[26.154687500000023,39.656640625],[26.101367187500017,39.5689453125],[26.113085937500017,39.4673828125],[26.827050781250023,39.562890625],[26.899218750000017,39.549658203125],[26.910937500000017,39.517333984375],[26.68183593750001,39.292236328125],[26.853613281250006,39.115625],[26.81494140625,38.960986328124996],[27.013671875,38.886865234374994],[26.9091796875,38.77578125],[26.763671875,38.709619140624994],[26.906835937500006,38.481738281249996],[26.97041015625001,38.4478515625],[27.14423828125001,38.451953125],[27.0986328125,38.41572265625],[26.861425781250006,38.372949218749994],[26.727343750000017,38.418603515624994],[26.674218750000023,38.335742187499996],[26.595019531250017,38.418603515624994],[26.586523437500006,38.55703125],[26.513574218750023,38.6294921875],[26.441308593750023,38.6412109375],[26.377832031250023,38.624169921874994],[26.37226562500001,38.561914062499994],[26.4296875,38.440625],[26.416406250000023,38.36787109375],[26.343652343750023,38.370068359375],[26.29072265625001,38.277197265625],[26.582421875000023,38.149267578125],[26.68281250000001,38.19833984375],[26.807421875000017,38.138330078124994],[26.87861328125001,38.05478515625],[26.94384765625,38.062890625],[27.232421875,37.978662109374994],[27.254785156250023,37.88232421875],[27.224414062500017,37.725439453125],[27.07783203125001,37.6876953125],[27.06796875,37.65791015625],[27.14794921875,37.60361328125],[27.21923828125,37.38916015625],[27.376269531250017,37.340722656249994],[27.520117187500006,37.24912109375],[27.535058593750023,37.163867187499996],[27.300195312500023,37.126855468749994],[27.24970703125001,37.079150390624996],[27.262988281250017,36.9765625],[27.348925781250017,37.019580078124996],[28.24238281250001,37.029052734375],[28.00537109375,36.831982421875],[27.466894531250006,36.746337890625],[27.453906250000017,36.712158203125],[27.540429687500023,36.684228515624994],[27.655859375,36.674609375],[27.803808593750006,36.736474609374994],[28.083984375,36.75146484375],[28.01416015625,36.670214843749996],[28.019433593750023,36.63447265625],[28.11152343750001,36.646386718749994],[28.195605468750017,36.686328125],[28.3037109375,36.811962890625],[28.48359375000001,36.80380859375],[28.81689453125,36.67529296875],[28.895898437500023,36.673583984375],[28.969628906250023,36.71533203125],[29.03828125000001,36.69345703125],[29.14326171875001,36.397216796875],[29.2236328125,36.324462890625],[29.6890625,36.156689453125],[30.23164062500001,36.30732421875],[30.387304687500006,36.24326171875],[30.446093750000017,36.269873046875],[30.558496093750023,36.525830078125],[30.58203125,36.797167968749996],[30.64404296875,36.865673828125],[31.240625,36.821728515625],[32.02197265625,36.535302734374994],[32.37773437500002,36.183642578124996],[32.533789062500006,36.100732421874994],[32.79482421875002,36.035888671875],[32.92949218750002,36.095703125],[33.69472656250002,36.181982421875],[33.95488281250002,36.295214843749996],[34.29960937500002,36.60419921875],[34.70361328125,36.816796875],[35.393164062500006,36.5751953125],[35.53740234375002,36.597021484375],[35.625585937500006,36.652783203125],[35.6611328125,36.72431640625],[36.048925781250006,36.910595703125],[36.18007812500002,36.8072265625],[36.1884765625,36.658984375],[35.8828125,36.40634765625],[35.81093750000002,36.309863281249996],[35.95693359375002,35.99814453125],[35.83964843750002,35.84921875],[35.76445312500002,35.571582031249996],[35.902441406250006,35.420703125],[35.94306640625001,35.223828125],[35.88789062500001,34.948632812499994],[35.97792968750002,34.547412109374996],[35.804296875,34.437402343749994],[35.64785156250002,34.2482421875],[35.61181640625,34.032177734375],[35.10859375000001,33.08369140625],[34.67841796875001,31.895703125],[34.387304687500006,31.483789062499994],[34.17626953125,31.30390625],[33.90253906250001,31.180957031249996],[33.66650390625,31.130419921874996],[33.3779296875,31.13095703125],[33.1943359375,31.084521484374996],[33.1298828125,31.168164062499997],[32.60332031250002,31.06875],[32.32353515625002,31.256054687499997],[32.21621093750002,31.29375],[32.281835937500006,31.200878906249997],[32.20654296875,31.119042968749994],[32.10175781250001,31.092822265624996],[32.00849609375001,31.220507812499996],[31.77109375,31.292578125],[31.875878906250023,31.413720703124994],[31.8921875,31.482470703124996],[32.07607421875002,31.344482421875],[32.13603515625002,31.341064453125],[31.888964843750017,31.54140625],[31.606542968750006,31.455761718749997],[31.5244140625,31.458251953125],[31.082910156250023,31.603320312499996],[31.05195312500001,31.591552734375],[31.001757812500017,31.462792968749994],[30.700488281250017,31.403857421874996],[30.56298828125,31.4169921875],[30.884179687500023,31.522363281249994],[30.92353515625001,31.566845703124997],[30.57099609375001,31.472998046875],[30.395117187500006,31.4576171875],[30.22265625,31.2583984375],[30.049414062500006,31.265429687499996],[29.929785156250006,31.227490234374997],[29.428515625000017,30.927441406249997],[29.072070312500017,30.830273437499997],[28.51484375000001,31.050439453124994],[27.967578125000017,31.097412109375],[27.829980468750023,31.195019531249997],[27.5400390625,31.212695312499996],[27.248046875,31.377880859374997],[26.768652343750006,31.470361328124994],[25.89326171875001,31.620898437499996],[25.382226562500023,31.51279296875],[25.225488281250023,31.5337890625],[25.025,31.883349609374996],[24.878515625,31.984277343749994],[24.683886718750017,32.015966796875],[24.129687500000017,32.009228515625],[23.797656250000017,32.15869140625],[23.28632812500001,32.213818359375],[23.10625,32.331445312499994],[23.129687500000017,32.448144531249994],[23.090625,32.61875],[22.187402343750023,32.918261718749996],[21.839453125,32.908642578125],[21.72138671875001,32.94248046875],[21.63593750000001,32.937304687499996],[21.424707031250023,32.799169921875],[21.062304687500017,32.775537109374994],[20.62109375,32.58017578125],[20.37060546875,32.43076171875],[20.121484375000023,32.21875],[19.973437500000017,31.999072265624996],[19.926367187500006,31.817529296874994],[19.961230468750017,31.556005859375],[20.14111328125,31.195507812499997],[20.150976562500006,31.07861328125],[20.01318359375,30.800683593749994],[19.713281250000023,30.48837890625],[19.58984375,30.413769531249997],[19.29169921875001,30.2880859375],[19.12373046875001,30.26611328125],[18.936425781250023,30.290429687499994],[18.669824218750023,30.415673828124994],[18.1904296875,30.777294921874997],[17.949316406250006,30.851904296875],[17.830468750000023,30.927587890625],[17.34921875,31.081494140624997],[16.781542968750017,31.214746093749994],[16.123046875,31.264453125],[15.705957031250023,31.426416015624994],[15.496386718750017,31.656787109374996],[15.363085937500017,31.97119140625],[15.359082031250011,32.15966796875],[15.266894531250017,32.311669921874994],[15.176562500000017,32.391162109374996],[14.513378906250011,32.511083984375],[14.155664062500023,32.709765625],[13.835351562500023,32.791796875],[13.536328125000011,32.824267578124996],[13.283496093750017,32.9146484375],[12.753515625,32.801074218749996],[12.279882812500006,32.858544921874994],[11.8134765625,33.093701171875],[11.657128906250023,33.118896484375],[11.400585937500011,33.224902343749996],[11.338085937500011,33.20947265625],[11.20263671875,33.24921875],[11.269921875000023,33.286328125],[11.257421875,33.308837890625],[11.150292968750023,33.36923828125],[11.084570312500006,33.562890625],[10.9580078125,33.626318359375],[10.8984375,33.53369140625],[10.722753906250006,33.514404296875],[10.713183593750017,33.689013671874996],[10.454296875000011,33.6625],[10.305273437500006,33.728271484375],[10.158984375000017,33.850048828125],[10.049023437500011,34.056298828124994],[10.064843750000023,34.21162109375],[10.200390625000011,34.346044921875],[10.534863281250011,34.544726562499996],[10.69091796875,34.678466796875],[11.1201171875,35.240283203124996],[11.043261718750017,35.335107421874994],[11.004296875000023,35.633837890624996],[10.68896484375,35.79951171875],[10.5908203125,35.887255859374996],[10.505761718750023,36.032421875],[10.487988281250011,36.2548828125],[10.642382812500017,36.41962890625],[10.798144531250017,36.493115234375],[10.967187500000023,36.743017578125],[11.126660156250011,36.874072265624996],[11.053906250000011,37.072509765625],[10.951367187500011,37.05927734375],[10.766210937500006,36.9302734375],[10.5712890625,36.879443359374996],[10.518164062500006,36.791357421875],[10.412304687500011,36.731835937499994],[10.293261718750017,36.781494140625],[10.334082031250006,36.865380859374994],[10.188769531250017,37.03388671875],[10.196386718750006,37.205859375],[10.08740234375,37.251269531249996],[9.875585937500006,37.254150390625],[9.896386718750023,37.181640625],[9.830273437500011,37.1353515625],[9.783984375000017,37.21142578125],[9.838476562500006,37.308984375],[9.68798828125,37.340380859374996],[9.141992187500023,37.194628906249996],[8.823535156250017,36.997607421874996],[8.576562500000023,36.93720703125],[8.127148437500011,36.9103515625],[7.910449218750017,36.856347656249994],[7.791601562500006,36.880273437499994],[7.607714843750017,36.999755859375],[7.432421875000017,37.05927734375],[7.204296875000011,37.0923828125],[7.238476562500011,36.968505859375],[6.927539062500017,36.91943359375],[6.575878906250011,37.00302734375],[6.486523437500011,37.085742187499996],[6.327832031250011,37.046044921874994],[6.249121093750006,36.938330078125],[6.064746093750017,36.8642578125],[5.725488281250023,36.799609375],[5.29541015625,36.648242187499996],[4.758105468750017,36.896337890625],[3.779003906250011,36.89619140625],[3.5205078125,36.7951171875],[2.972851562500011,36.784472656249996],[2.593359375,36.60068359375],[2.342871093750006,36.610302734375],[1.257226562500023,36.519580078124996],[0.9716796875,36.4439453125],[0.312207031250011,36.162353515625],[0.151660156250017,36.063134765624994],[0.047949218750006,35.900537109374994],[-0.048242187499994,35.8328125],[-0.189160156249983,35.819091796875],[-0.426123046874977,35.8615234375],[-0.91748046875,35.668408203125],[-1.205371093749989,35.495751953124994],[-1.335839843749994,35.3642578125],[-1.673632812499989,35.18310546875],[-1.913281249999983,35.09423828125],[-2.839941406249977,35.127832031249994],[-2.95361328125,35.31513671875],[-2.972216796874989,35.407275390624996],[-3.063085937499977,35.317236328125],[-3.206005859374983,35.239111328125],[-3.394726562499983,35.211816406249994],[-3.590625,35.228320312499996],[-3.693261718749994,35.27998046875],[-4.329980468749994,35.161474609375],[-4.628320312499994,35.206396484375],[-4.837207031249989,35.281298828124996],[-5.105371093749994,35.4677734375],[-5.252685546875,35.61474609375],[-5.337646484375,35.74521484375],[-5.337646484375,35.85654296875],[-5.27783203125,35.902734375],[-5.397363281249994,35.9298828125],[-5.622851562499989,35.82890625],[-5.9248046875,35.785791015624994],[-6.353125,34.77607421875],[-6.755761718749994,34.13291015625],[-6.900976562499977,33.969042968749996],[-7.562353515624977,33.640283203124994],[-8.301171875,33.374365234375],[-8.512841796874994,33.25244140625],[-8.836230468749989,32.920458984374996],[-9.245849609375,32.5724609375],[-9.286572265624983,32.240576171875],[-9.347460937499989,32.086376953125],[-9.674951171874994,31.710986328124996],[-9.808691406249977,31.424609375],[-9.832421875,30.847265625],[-9.87548828125,30.717919921874994],[-9.85390625,30.644580078124996],[-9.773144531249983,30.603125],[-9.652929687499977,30.447558593749996],[-9.623828124999989,30.35263671875],[-9.667089843749977,30.109277343749994],[-9.743457031249989,29.958203125],[-10.0,29.652566716164355]],[[33.45377420421746,28.0],[33.2021484375,28.208300781249996],[32.89824218750002,28.565234375],[32.78447265625002,28.78662109375],[32.65888671875001,28.927734375],[32.59902343750002,29.321923828124994],[32.39726562500002,29.5337890625],[32.35976562500002,29.630664062499996],[32.48945312500001,29.851513671874997],[32.47304687500002,29.925439453124994],[32.56572265625002,29.973974609375],[32.72148437500002,29.521777343749996],[32.87060546875,29.28623046875],[33.13017578125002,28.978271484375],[33.24775390625001,28.567724609375],[33.59414062500002,28.255566406249997],[33.82229955733234,28.0]],[[34.3894772200471,28.0],[34.42714843750002,28.106494140624996],[34.44648437500001,28.357324218749994],[34.6171875,28.75791015625],[34.736425781250006,29.27060546875],[34.97343750000002,29.555029296875],[34.98222656250002,29.48447265625],[34.79912109375002,28.720507812499996],[34.779882812500006,28.50732421875],[34.6162109375,28.148339843749994],[34.625,28.064501953124996],[34.72207031250002,28.130664062499996],[35.07832031250001,28.08701171875],[35.20864886575577,28.0]]]}}]}